{
    "links": {
        "self": "http://www.neowsapp.com/rest/v1/neo/3663742?api_key=iIulBulltgU6a56xZRHN4H3l9WmuAYTsLGpBGhQ2"
    },
    "id": "3663742",
    "neo_reference_id": "3663742",
    "name": "(2014 EO12)",
    "designation": "2014 EO12",
    "nasa_jpl_url": "http://ssd.jpl.nasa.gov/sbdb.cgi?sstr=3663742",
    "absolute_magnitude_h": 25.7,
    "estimated_diameter": {
        "kilometers": {
            "estimated_diameter_min": 0.0192555078,
            "estimated_diameter_max": 0.0430566244
        },
        "meters": {
            "estimated_diameter_min": 19.2555078188,
            "estimated_diameter_max": 43.0566244241
        },
        "miles": {
            "estimated_diameter_min": 0.0119648141,
            "estimated_diameter_max": 0.0267541378
        },
        "feet": {
            "estimated_diameter_min": 63.1742402722,
            "estimated_diameter_max": 141.2618956756
        }
    },
    "is_potentially_hazardous_asteroid": false,
    "close_approach_data": [
        {
            "close_approach_date": "2014-03-18",
            "close_approach_date_full": "2014-Mar-18 20:50",
            "epoch_date_close_approach": 1395175800000,
            "relative_velocity": {
                "kilometers_per_second": "7.477125993",
                "kilometers_per_hour": "26917.6535747037",
                "miles_per_hour": "16725.5831336819"
            },
            "miss_distance": {
                "astronomical": "0.0481366226",
                "lunar": "18.7251461914",
                "kilometers": "7201136.209953862",
                "miles": "4474578.5519008156"
            },
            "orbiting_body": "Earth"
        }
    ],
    "orbital_data": {
        "orbit_id": "5",
        "orbit_determination_date": "2017-04-06 08:42:08",
        "first_observation_date": "2014-03-08",
        "last_observation_date": "2014-03-11",
        "data_arc_in_days": 3,
        "observations_used": 21,
        "orbit_uncertainty": "9",
        "minimum_orbit_intersection": ".0205807",
        "jupiter_tisserand_invariant": "4.195",
        "epoch_osculation": "2456726.5",
        "eccentricity": ".397203934925936",
        "semi_major_axis": "1.645175932884768",
        "inclination": "1.258390137890357",
        "ascending_node_longitude": "122.5772550450537",
        "orbital_period": "770.7560605429364",
        "perihelion_distance": ".9917055786974904",
        "perihelion_argument": "83.77700245324077",
        "aphelion_distance": "2.298646287072045",
        "perihelion_time": "2456758.157724504310",
        "mean_anomaly": "345.2135047585309",
        "mean_motion": ".4670738492103566",
        "equinox": "J2000",
        "orbit_class": {
            "orbit_class_type": "APO",
            "orbit_class_description": "Near-Earth asteroid orbits which cross the Earth’s orbit similar to that of 1862 Apollo",
            "orbit_class_range": "a (semi-major axis) > 1.0 AU; q (perihelion) < 1.017 AU"
        }
    },
    "is_sentry_object": false
}